GLOBALSTAR M045         
1 25676U 99019A   26008.20496889 -.00000063  00000+0  27003-3 0  9990
2 25676  51.9977  80.9195 0000522 151.5871 243.2660 12.27070915218564
GLOBALSTAR M019         
1 25677U 99019B   26008.07514600 -.00000123  00000+0 -34148-3 0  9994
2 25677  51.9857 226.0775 0002140  44.7805 117.5425 12.13881984210023
GLOBALSTAR M044         
1 25678U 99019C   26008.02742590 -.00000082  00000+0  26753-4 0  9998
2 25678  51.9938 203.1936 0007246  75.8686  93.5091 11.90263866195710
GLOBALSTAR M042         
1 25679U 99019D   26007.77031413 -.00000115  00000+0 -21591-3 0  9997
2 25679  51.9989 193.4051 0003258  24.0325 349.4618 12.22095860210271
GLOBALSTAR M025         
1 25770U 99031A   26008.10198297 -.00000055  00000+0  37990-3 0  9997
2 25770  51.9840  44.5694 0002528 127.8124 265.1111 11.22560183504728
GLOBALSTAR M049         
1 25771U 99031B   26008.18861851 -.00000042  00000+0  81806-3 0  9990
2 25771  51.9882  89.4332 0002509  18.0418 342.0467 11.12124504140231
GLOBALSTAR M047         
1 25772U 99031C   26008.19925935 -.00000060  00000+0  26514-3 0  9991
2 25772  51.9846  66.7920 0016198 253.1250 106.7780 11.31931983494321
GLOBALSTAR M052         
1 25773U 99031D   26008.00262051 -.00000035  00000+0  10214-2 0  9996
2 25773  51.9827 195.6503 0003414 130.3918  41.2620 11.15063333501359
